[{"OBJECT_NAME":"SCATSAT 1","OBJECT_ID":"2016-059H","EPOCH":"2026-03-09T17:18:57.175776","MEAN_MOTION":14.7926349,"ECCENTRICITY":0.00544061,"INCLINATION":98.1298,"RA_OF_ASC_NODE":131.4325,"ARG_OF_PERICENTER":207.4011,"MEAN_ANOMALY":152.4328,"EPHEMERIS_TYPE":0,"CLASSIFICATION_TYPE":"U","NORAD_CAT_ID":41790,"ELEMENT_SET_NO":999,"REV_AT_EPOCH":8688,"BSTAR":0.00025357446,"MEAN_MOTION_DOT":1.875e-5,"MEAN_MOTION_DDOT":0},{"OBJECT_NAME":"SL-14 R\/B","OBJECT_ID":"1981-117B","EPOCH":"2026-03-09T17:56:04.213536","MEAN_MOTION":14.87267707,"ECCENTRICITY":0.00186594,"INCLINATION":82.5251,"RA_OF_ASC_NODE":320.3846,"ARG_OF_PERICENTER":104.7501,"MEAN_ANOMALY":255.5785,"EPHEMERIS_TYPE":0,"CLASSIFICATION_TYPE":"U","NORAD_CAT_ID":12988,"ELEMENT_SET_NO":999,"REV_AT_EPOCH":37192,"BSTAR":6.5348474e-5,"MEAN_MOTION_DOT":6.15e-6,"MEAN_MOTION_DDOT":0}]
